{
  "type": "FeatureCollection",
  "features": [
    {
      "type": "Feature",
      "properties": {
        "norad_id": 46805,
        "name": "COSMOS 2547 (705K)",
        "group": "glo-ops",
        "lat": -28.60083227781231,
        "lon": -176.20372410498857,
        "alt_km": 19136.512921450954,
        "timestamp": "2025-12-09T07:41:33.468886+00:00",
        "meta_object_name": "COSMOS 2547 (705K)",
        "meta_object_id": "2020-075A",
        "meta_epoch": "2025-12-07T22:54:27.999936",
        "meta_mean_motion": 2.13099949,
        "meta_eccentricity": 0.00062185,
        "meta_inclination": 64.596,
        "meta_ra_of_asc_node": 198.8564,
        "meta_arg_of_pericenter": 228.8188,
        "meta_mean_anomaly": 131.2072,
        "meta_ephemeris_type": 0,
        "meta_classification_type": "U",
        "meta_norad_cat_id": 46805,
        "meta_element_set_no": 999,
        "meta_rev_at_epoch": 3983,
        "meta_bstar": 0,
        "meta_mean_motion_dot": 5.3e-07,
        "meta_mean_motion_ddot": 0,
        "tle_line1": "1 46805U 20075A   25341.95449074  .00000053  00000+0  00000+0 0  9990",
        "tle_line2": "2 46805  64.5960 198.8564 0006218 228.8188 131.2072  2.13099949 39835"
      },
      "geometry": {
        "type": "Point",
        "coordinates": [
          -176.20372410498857,
          -28.60083227781231
        ]
      }
    },
    {
      "type": "Feature",
      "properties": {
        "norad_id": 52984,
        "name": "COSMOS 2557 (706K)",
        "group": "glo-ops",
        "lat": -18.78362966773051,
        "lon": 150.53721201570883,
        "alt_km": 19124.27787279579,
        "timestamp": "2025-12-09T07:41:33.468898+00:00",
        "meta_object_name": "COSMOS 2557 (706K)",
        "meta_object_id": "2022-075A",
        "meta_epoch": "2025-12-07T04:21:00.419904",
        "meta_mean_motion": 2.13101754,
        "meta_eccentricity": 0.00137049,
        "meta_inclination": 64.4129,
        "meta_ra_of_asc_node": 321.247,
        "meta_arg_of_pericenter": 276.9,
        "meta_mean_anomaly": 82.939,
        "meta_ephemeris_type": 0,
        "meta_classification_type": "U",
        "meta_norad_cat_id": 52984,
        "meta_element_set_no": 999,
        "meta_rev_at_epoch": 2662,
        "meta_bstar": 0,
        "meta_mean_motion_dot": -5.2e-07,
        "meta_mean_motion_ddot": 0,
        "tle_line1": "1 52984U 22075A   25341.18125486 -.00000052  00000+0  00000+0 0  9990",
        "tle_line2": "2 52984  64.4129 321.2470 0013704 276.9000  82.9390  2.13101754 26625"
      },
      "geometry": {
        "type": "Point",
        "coordinates": [
          150.53721201570883,
          -18.78362966773051
        ]
      }
    },
    {
      "type": "Feature",
      "properties": {
        "norad_id": 54031,
        "name": "COSMOS 2559 (707K)",
        "group": "glo-ops",
        "lat": -18.012866949615866,
        "lon": -47.72318425380275,
        "alt_km": 19158.267334301818,
        "timestamp": "2025-12-09T07:41:33.468909+00:00",
        "meta_object_name": "COSMOS 2559 (707K)",
        "meta_object_id": "2022-130A",
        "meta_epoch": "2025-12-08T21:03:33.189408",
        "meta_mean_motion": 2.13101268,
        "meta_eccentricity": 0.00119077,
        "meta_inclination": 64.3845,
        "meta_ra_of_asc_node": 321.277,
        "meta_arg_of_pericenter": 192.5863,
        "meta_mean_anomaly": 167.3811,
        "meta_ephemeris_type": 0,
        "meta_classification_type": "U",
        "meta_norad_cat_id": 54031,
        "meta_element_set_no": 999,
        "meta_rev_at_epoch": 2463,
        "meta_bstar": 0,
        "meta_mean_motion_dot": -5.1e-07,
        "meta_mean_motion_ddot": 0,
        "tle_line1": "1 54031U 22130A   25342.87746747 -.00000051  00000+0  00000+0 0  9992",
        "tle_line2": "2 54031  64.3845 321.2770 0011907 192.5863 167.3811  2.13101268 24635"
      },
      "geometry": {
        "type": "Point",
        "coordinates": [
          -47.72318425380275,
          -18.012866949615866
        ]
      }
    },
    {
      "type": "Feature",
      "properties": {
        "norad_id": 54377,
        "name": "COSMOS 2564 (761)",
        "group": "glo-ops",
        "lat": 63.17272125657981,
        "lon": -50.008506635769464,
        "alt_km": 19129.33511716069,
        "timestamp": "2025-12-09T07:41:33.468920+00:00",
        "meta_object_name": "COSMOS 2564 (761)",
        "meta_object_id": "2022-161A",
        "meta_epoch": "2025-12-06T20:16:19.958016",
        "meta_mean_motion": 2.13101987,
        "meta_eccentricity": 0.0008674,
        "meta_inclination": 64.7378,
        "meta_ra_of_asc_node": 199.0949,
        "meta_arg_of_pericenter": 205.6872,
        "meta_mean_anomaly": 154.3558,
        "meta_ephemeris_type": 0,
        "meta_classification_type": "U",
        "meta_norad_cat_id": 54377,
        "meta_element_set_no": 999,
        "meta_rev_at_epoch": 2353,
        "meta_bstar": 0,
        "meta_mean_motion_dot": 6.7e-07,
        "meta_mean_motion_ddot": 0,
        "tle_line1": "1 54377U 22161A   25340.84467544  .00000067  00000+0  00000+0 0  9995",
        "tle_line2": "2 54377  64.7378 199.0949 0008674 205.6872 154.3558  2.13101987 23535"
      },
      "geometry": {
        "type": "Point",
        "coordinates": [
          -50.008506635769464,
          63.17272125657981
        ]
      }
    },
    {
      "type": "Feature",
      "properties": {
        "norad_id": 57517,
        "name": "COSMOS 2569 (703K)",
        "group": "glo-ops",
        "lat": 65.19610980276813,
        "lon": 166.8222000814712,
        "alt_km": 19147.89272867673,
        "timestamp": "2025-12-09T07:41:33.468932+00:00",
        "meta_object_name": "COSMOS 2569 (703K)",
        "meta_object_id": "2023-114A",
        "meta_epoch": "2025-12-07T19:07:05.045952",
        "meta_mean_motion": 2.13103857,
        "meta_eccentricity": 0.00103488,
        "meta_inclination": 65.1916,
        "meta_ra_of_asc_node": 79.0806,
        "meta_arg_of_pericenter": 287.0317,
        "meta_mean_anomaly": 72.8691,
        "meta_ephemeris_type": 0,
        "meta_classification_type": "U",
        "meta_norad_cat_id": 57517,
        "meta_element_set_no": 999,
        "meta_rev_at_epoch": 1818,
        "meta_bstar": 0,
        "meta_mean_motion_dot": -1.2e-07,
        "meta_mean_motion_ddot": 0,
        "tle_line1": "1 57517U 23114A   25341.79658618 -.00000012  00000+0  00000+0 0  9993",
        "tle_line2": "2 57517  65.1916  79.0806 0010348 287.0317  72.8691  2.13103857 18180"
      },
      "geometry": {
        "type": "Point",
        "coordinates": [
          166.8222000814712,
          65.19610980276813
        ]
      }
    },
    {
      "type": "Feature",
      "properties": {
        "norad_id": 63130,
        "name": "COSMOS 2584 (704K)",
        "group": "glo-ops",
        "lat": 3.5484108866831803,
        "lon": -102.38868526533743,
        "alt_km": 19115.00475127125,
        "timestamp": "2025-12-09T07:41:33.468943+00:00",
        "meta_object_name": "COSMOS 2584 (704K)",
        "meta_object_id": "2025-042A",
        "meta_epoch": "2025-12-08T03:39:29.178720",
        "meta_mean_motion": 2.13102925,
        "meta_eccentricity": 0.0007602,
        "meta_inclination": 64.9737,
        "meta_ra_of_asc_node": 79.3022,
        "meta_arg_of_pericenter": 215.9611,
        "meta_mean_anomaly": 144.0025,
        "meta_ephemeris_type": 0,
        "meta_classification_type": "U",
        "meta_norad_cat_id": 63130,
        "meta_element_set_no": 999,
        "meta_rev_at_epoch": 597,
        "meta_bstar": 0,
        "meta_mean_motion_dot": -1.2e-07,
        "meta_mean_motion_ddot": 0,
        "tle_line1": "1 63130U 25042A   25342.15242105 -.00000012  00000+0  00000+0 0  9994",
        "tle_line2": "2 63130  64.9737  79.3022 0007602 215.9611 144.0025  2.13102925  5976"
      },
      "geometry": {
        "type": "Point",
        "coordinates": [
          -102.38868526533743,
          3.5484108866831803
        ]
      }
    },
    {
      "type": "Feature",
      "properties": {
        "norad_id": 65590,
        "name": "COSMOS 2596 (708K)",
        "group": "glo-ops",
        "lat": -55.30503997936022,
        "lon": -81.39174193887621,
        "alt_km": 19101.00762431005,
        "timestamp": "2025-12-09T07:41:33.468955+00:00",
        "meta_object_name": "COSMOS 2596 (708K)",
        "meta_object_id": "2025-206B",
        "meta_epoch": "2025-12-08T14:54:31.099392",
        "meta_mean_motion": 2.13100258,
        "meta_eccentricity": 0.0013997,
        "meta_inclination": 64.7466,
        "meta_ra_of_asc_node": 321.6168,
        "meta_arg_of_pericenter": 305.3279,
        "meta_mean_anomaly": 172.7961,
        "meta_ephemeris_type": 0,
        "meta_classification_type": "U",
        "meta_norad_cat_id": 65590,
        "meta_element_set_no": 999,
        "meta_rev_at_epoch": 185,
        "meta_bstar": 0,
        "meta_mean_motion_dot": -5.1e-07,
        "meta_mean_motion_ddot": 0,
        "tle_line1": "1 65590U 25206B   25342.62119328 -.00000051  00000+0  00000+0 0  9993",
        "tle_line2": "2 65590  64.7466 321.6168 0013997 305.3279 172.7961  2.13100258  1854"
      },
      "geometry": {
        "type": "Point",
        "coordinates": [
          -81.39174193887621,
          -55.30503997936022
        ]
      }
    }
  ]
}